{"type": "FeatureCollection", "features": [ {"type": "Feature", "properties": {"norad_id": 33748, "name": "FENGYUN 1C DEB", "group": "fengyun-1c-debris", "lat": -54.171063291745035, "lon": 47.24215684152957, "alt_km": 777.2343912690121, "timestamp": "2025-12-09T23:33:24.142396+00:00", "meta": {"OBJECT_NAME": "FENGYUN 1C DEB", "OBJECT_ID": "1999-025DJM", "EPOCH": "2025-12-09T02:01:00.473664", "MEAN_MOTION": 14.32243149, "ECCENTRICITY": 0.00344124, "INCLINATION": 98.5865, "RA_OF_ASC_NODE": 34.2741, "ARG_OF_PERICENTER": 251.9887, "MEAN_ANOMALY": 107.7545, "EPHEMERIS_TYPE": 0, "CLASSIFICATION_TYPE": "U", "NORAD_CAT_ID": 33748, "ELEMENT_SET_NO": 999, "REV_AT_EPOCH": 91341, "BSTAR": 0.0016017581, "MEAN_MOTION_DOT": 4.305e-05, "MEAN_MOTION_DDOT": 0}, "tle": {"line1": "1 33748U 99025DJM 25343.08403326  .00004305  00000+0  16018-2 0  9992", "line2": "2 33748  98.5865  34.2741 0034412 251.9887 107.7545 14.32243149913413"}}, "geometry": {"type": "Point", "coordinates": [47.24215684152957, -54.171063291745035]}}, {"type": "Feature", "properties": {"norad_id": 35088, "name": "FENGYUN 1C DEB", "group": "fengyun-1c-debris", "lat": -44.81946125459204, "lon": -23.728166449631455, "alt_km": 670.4623115124559, "timestamp": "2025-12-09T23:33:24.142408+00:00", "meta": {"OBJECT_NAME": "FENGYUN 1C DEB", "OBJECT_ID": "1999-025DJQ", "EPOCH": "2025-12-05T18:07:13.251936", "MEAN_MOTION": 14.11541767, "ECCENTRICITY": 0.0269112, "INCLINATION": 94.6213, "RA_OF_ASC_NODE": 158.6962, "ARG_OF_PERICENTER": 224.9702, "MEAN_ANOMALY": 132.9405, "EPHEMERIS_TYPE": 0, "CLASSIFICATION_TYPE": "U", "NORAD_CAT_ID": 35088, "ELEMENT_SET_NO": 999, "REV_AT_EPOCH": 58701, "BSTAR": 0.013442762, "MEAN_MOTION_DOT": 0.00034432, "MEAN_MOTION_DDOT": 0}, "tle": {"line1": "1 35088U 99025DJQ 25339.75501449  .00034432  00000+0  13443-1 0  9997", "line2": "2 35088  94.6213 158.6962 0269112 224.9702 132.9405 14.11541767587017"}}, "geometry": {"type": "Point", "coordinates": [-23.728166449631455, -44.81946125459204]}}, {"type": "Feature", "properties": {"norad_id": 35089, "name": "FENGYUN 1C DEB", "group": "fengyun-1c-debris", "lat": 54.451559314542656, "lon": -18.252318743179007, "alt_km": 802.1003340367652, "timestamp": "2025-12-09T23:33:24.142421+00:00", "meta": {"OBJECT_NAME": "FENGYUN 1C DEB", "OBJECT_ID": "1999-025DJR", "EPOCH": "2025-12-09T11:27:18.732960", "MEAN_MOTION": 14.19406772, "ECCENTRICITY": 0.00291418, "INCLINATION": 98.5584, "RA_OF_ASC_NODE": 353.4263, "ARG_OF_PERICENTER": 74.1039, "MEAN_ANOMALY": 286.3346, "EPHEMERIS_TYPE": 0, "CLASSIFICATION_TYPE": "U", "NORAD_CAT_ID": 35089, "ELEMENT_SET_NO": 999, "REV_AT_EPOCH": 60829, "BSTAR": 0.00082160985, "MEAN_MOTION_DOT": 1.693e-05, "MEAN_MOTION_DDOT": 0}, "tle": {"line1": "1 35089U 99025DJR 25343.47730015  .00001693  00000+0  82161-3 0  9993", "line2": "2 35089  98.5584 353.4263 0029141  74.1039 286.3346 14.19406772608291"}}, "geometry": {"type": "Point", "coordinates": [-18.252318743179007, 54.451559314542656]}}, {"type": "Feature", "properties": {"norad_id": 35090, "name": "FENGYUN 1C DEB", "group": "fengyun-1c-debris", "lat": 33.68895126077169, "lon": -9.62227218347531, "alt_km": 791.1613346330332, "timestamp": "2025-12-09T23:33:24.142431+00:00", "meta": {"OBJECT_NAME": "FENGYUN 1C DEB", "OBJECT_ID": "1999-025DJS", "EPOCH": "2025-11-28T11:16:09.482016", "MEAN_MOTION": 14.17474979, "ECCENTRICITY": 0.00568935, "INCLINATION": 99.1993, "RA_OF_ASC_NODE": 344.6679, "ARG_OF_PERICENTER": 56.1043, "MEAN_ANOMALY": 304.5524, "EPHEMERIS_TYPE": 0, "CLASSIFICATION_TYPE": "U", "NORAD_CAT_ID": 35090, "ELEMENT_SET_NO": 999, "REV_AT_EPOCH": 66048, "BSTAR": 0.0014922384, "MEAN_MOTION_DOT": 3.028e-05, "MEAN_MOTION_DDOT": 0}, "tle": {"line1": "1 35090U 99025DJS 25332.46955419  .00003028  00000+0  14922-2 0  9992", "line2": "2 35090  99.1993 344.6679 0056893  56.1043 304.5524 14.17474979660488"}}, "geometry": {"type": "Point", "coordinates": [-9.62227218347531, 33.68895126077169]}}, {"type": "Feature", "properties": {"norad_id": 35091, "name": "FENGYUN 1C DEB", "group": "fengyun-1c-debris", "lat": -65.95481711580634, "lon": 107.98089935431081, "alt_km": 661.7960447024334, "timestamp": "2025-12-09T23:33:24.142441+00:00", "meta": {"OBJECT_NAME": "FENGYUN 1C DEB", "OBJECT_ID": "1999-025DJT", "EPOCH": "2025-12-08T18:17:05.167104", "MEAN_MOTION": 14.61392696, "ECCENTRICITY": 0.00484977, "INCLINATION": 98.5949, "RA_OF_ASC_NODE": 86.8994, "ARG_OF_PERICENTER": 304.2496, "MEAN_ANOMALY": 55.4115, "EPHEMERIS_TYPE": 0, "CLASSIFICATION_TYPE": "U", "NORAD_CAT_ID": 35091, "ELEMENT_SET_NO": 999, "REV_AT_EPOCH": 89869, "BSTAR": 0.0039302605, "MEAN_MOTION_DOT": 0.0001977, "MEAN_MOTION_DDOT": 0}, "tle": {"line1": "1 35091U 99025DJT 25342.76186536  .00019770  00000+0  39303-2 0  9994", "line2": "2 35091  98.5949  86.8994 0048497 304.2496  55.4115 14.61392696898696"}}, "geometry": {"type": "Point", "coordinates": [107.98089935431081, -65.95481711580634]}}, {"type": "Feature", "properties": {"norad_id": 35102, "name": "FENGYUN 1C DEB", "group": "fengyun-1c-debris", "lat": 48.371593421449674, "lon": -15.329289823874642, "alt_km": 764.0142361645385, "timestamp": "2025-12-09T23:33:24.142451+00:00", "meta": {"OBJECT_NAME": "FENGYUN 1C DEB", "OBJECT_ID": "1999-025DKE", "EPOCH": "2025-11-24T18:37:30.315648", "MEAN_MOTION": 14.28809668, "ECCENTRICITY": 0.0059856, "INCLINATION": 98.4816, "RA_OF_ASC_NODE": 339.5496, "ARG_OF_PERICENTER": 144.8588, "MEAN_ANOMALY": 215.6565, "EPHEMERIS_TYPE": 0, "CLASSIFICATION_TYPE": "U", "NORAD_CAT_ID": 35102, "ELEMENT_SET_NO": 999, "REV_AT_EPOCH": 64656, "BSTAR": 0.00057863293, "MEAN_MOTION_DOT": 1.445e-05, "MEAN_MOTION_DDOT": 0}, "tle": {"line1": "1 35102U 99025DKE 25328.77604532  .00001445  00000+0  57863-3 0  9995", "line2": "2 35102  98.4816 339.5496 0059856 144.8588 215.6565 14.28809668646568"}}, "geometry": {"type": "Point", "coordinates": [-15.329289823874642, 48.371593421449674]}}, {"type": "Feature", "properties": {"norad_id": 35104, "name": "FENGYUN 1C DEB", "group": "fengyun-1c-debris", "lat": -60.49614222276273, "lon": 6.267747371492976, "alt_km": 850.6907860208839, "timestamp": "2025-12-09T23:33:24.142466+00:00", "meta": {"OBJECT_NAME": "FENGYUN 1C DEB", "OBJECT_ID": "1999-025DKG", "EPOCH": "2025-12-06T18:54:45.260640", "MEAN_MOTION": 14.20313369, "ECCENTRICITY": 0.00310538, "INCLINATION": 98.5964, "RA_OF_ASC_NODE": 347.6591, "ARG_OF_PERICENTER": 157.8508, "MEAN_ANOMALY": 20.7382, "EPHEMERIS_TYPE": 0, "CLASSIFICATION_TYPE": "U", "NORAD_CAT_ID": 35104, "ELEMENT_SET_NO": 999, "REV_AT_EPOCH": 89682, "BSTAR": 0.00068235303, "MEAN_MOTION_DOT": 1.425e-05, "MEAN_MOTION_DDOT": 0}, "tle": {"line1": "1 35104U 99025DKG 25340.78802385  .00001425  00000+0  68235-3 0  9991", "line2": "2 35104  98.5964 347.6591 0031053 157.8508  20.7382 14.20313369896824"}}, "geometry": {"type": "Point", "coordinates": [6.267747371492976, -60.49614222276273]}}, {"type": "Feature", "properties": {"norad_id": 35105, "name": "FENGYUN 1C DEB", "group": "fengyun-1c-debris", "lat": 80.86375911513095, "lon": -113.40031670641532, "alt_km": 660.7385160699969, "timestamp": "2025-12-09T23:33:24.142476+00:00", "meta": {"OBJECT_NAME": "FENGYUN 1C DEB", "OBJECT_ID": "1999-025DKH", "EPOCH": "2025-12-08T03:57:40.122144", "MEAN_MOTION": 14.45358036, "ECCENTRICITY": 0.01128686, "INCLINATION": 98.9433, "RA_OF_ASC_NODE": 322.9718, "ARG_OF_PERICENTER": 67.9537, "MEAN_ANOMALY": 293.3596, "EPHEMERIS_TYPE": 0, "CLASSIFICATION_TYPE": "U", "NORAD_CAT_ID": 35105, "ELEMENT_SET_NO": 999, "REV_AT_EPOCH": 94427, "BSTAR": 0.00055121189, "MEAN_MOTION_DOT": 2.043e-05, "MEAN_MOTION_DDOT": 0}, "tle": {"line1": "1 35105U 99025DKH 25342.16504771  .00002043  00000+0  55121-3 0  9991", "line2": "2 35105  98.9433 322.9718 0112868  67.9537 293.3596 14.45358036944279"}}, "geometry": {"type": "Point", "coordinates": [-113.40031670641532, 80.86375911513095]}}, {"type": "Feature", "properties": {"norad_id": 35108, "name": "FENGYUN 1C DEB", "group": "fengyun-1c-debris", "lat": 76.10125202415705, "lon": -59.06964233121666, "alt_km": 766.2734591001572, "timestamp": "2025-12-09T23:33:24.142486+00:00", "meta": {"OBJECT_NAME": "FENGYUN 1C DEB", "OBJECT_ID": "1999-025DKL", "EPOCH": "2025-12-08T06:13:34.793472", "MEAN_MOTION": 14.06905654, "ECCENTRICITY": 0.01350645, "INCLINATION": 98.7996, "RA_OF_ASC_NODE": 338.0081, "ARG_OF_PERICENTER": 74.0763, "MEAN_ANOMALY": 287.5242, "EPHEMERIS_TYPE": 0, "CLASSIFICATION_TYPE": "U", "NORAD_CAT_ID": 35108, "ELEMENT_SET_NO": 999, "REV_AT_EPOCH": 89175, "BSTAR": 0.00049382125, "MEAN_MOTION_DOT": 8.52e-06, "MEAN_MOTION_DDOT": 0}, "tle": {"line1": "1 35108U 99025DKL 25342.25943048  .00000852  00000+0  49382-3 0  9996", "line2": "2 35108  98.7996 338.0081 0135064  74.0763 287.5242 14.06905654891756"}}, "geometry": {"type": "Point", "coordinates": [-59.06964233121666, 76.10125202415705]}}, {"type": "Feature", "properties": {"norad_id": 35109, "name": "FENGYUN 1C DEB", "group": "fengyun-1c-debris", "lat": 77.57776156921366, "lon": -163.16878211030695, "alt_km": 753.1668245152041, "timestamp": "2025-12-09T23:33:24.142496+00:00", "meta": {"OBJECT_NAME": "FENGYUN 1C DEB", "OBJECT_ID": "1999-025DKM", "EPOCH": "2025-12-08T04:51:14.194368", "MEAN_MOTION": 14.20865245, "ECCENTRICITY": 0.01536181, "INCLINATION": 98.6162, "RA_OF_ASC_NODE": 331.5968, "ARG_OF_PERICENTER": 47.4251, "MEAN_ANOMALY": 313.9771, "EPHEMERIS_TYPE": 0, "CLASSIFICATION_TYPE": "U", "NORAD_CAT_ID": 35109, "ELEMENT_SET_NO": 999, "REV_AT_EPOCH": 64095, "BSTAR": 0.00053660698, "MEAN_MOTION_DOT": 1.265e-05, "MEAN_MOTION_DDOT": 0}, "tle": {"line1": "1 35109U 99025DKM 25342.20224762  .00001265  00000+0  53661-3 0  9991", "line2": "2 35109  98.6162 331.5968 0153618  47.4251 313.9771 14.20865245640956"}}, "geometry": {"type": "Point", "coordinates": [-163.16878211030695, 77.57776156921366]}}]}